ONEWEB-0340             
1 49206U 21083W   25097.90663444  .00000124  00000+0  28066-3 0  9995
2 49206  87.9103  61.9741 0001968  87.3061 272.8297 13.18685468173893
ONEWEB-0341             
1 49207U 21083X   25097.91452047  .00000135  00000+0  30894-3 0  9996
2 49207  87.9101  61.9828 0001350  91.1029 269.0258 13.18688757172629
ONEWEB-0342             
1 49208U 21083Y   25097.97659127  .00000042  00000+0  70929-4 0  9992
2 49208  87.9323   1.0843 0001823  74.8468 285.2867 13.20771020179338
ONEWEB-0343             
1 49209U 21083Z   25097.60626709  .00000073  00000+0  15278-3 0  9992
2 49209  87.9093  62.0343 0001400  76.7574 283.3714 13.18683911173922
ONEWEB-0344             
1 49210U 21083AA  25097.75742328  .00000418  00000+0  11353-2 0  9998
2 49210  87.8968  46.8039 0001595  89.8844 270.2467 13.11941322173731
ONEWEB-0345             
1 49211U 21083AB  25097.75643074  .00000262  00000+0  68202-3 0  9990
2 49211  87.8963  46.7623 0001519  91.3920 268.7383 13.13473885173740
ONEWEB-0346             
1 49212U 21083AC  25097.61576958  .00000068  00000+0  13887-3 0  9995
2 49212  87.9100  62.0519 0002270  93.8566 266.2825 13.18685002172573
ONEWEB-0348             
1 49213U 21083AD  25097.96712265  .00000014  00000+0  18462-5 0  9994
2 49213  87.9331   1.0863 0001787 101.6341 258.4993 13.20771982179365
